SAUDISAT 1C (SO-50)     
1 27607U 02058C   26168.89705227  .00000776  00000+0  10901-3 0  9993
2 27607  64.5511 126.7887 0075200 262.3451  96.9110 14.83048298264568
SAUDISAT 2              
1 28371U 04025F   26168.85322928  .00000187  00000+0  52853-4 0  9996
2 28371  98.5507 168.8523 0023570 296.1156  63.7616 14.56684246165846
SAUDISAT 3              
1 31118U 07012B   26168.80270563  .00000202  00000+0  40881-4 0  9996
2 31118  98.1456 119.2037 0013669 221.7301 138.2864 14.71425971 27836
PISAT                   
1 41784U 16059B   26168.96139996  .00000656  00000+0  11936-3 0  9999
2 41784  97.8178 169.3809 0028443 200.2325 159.7756 14.68984509519859
FLYING LAPTOP           
1 42831U 17042G   26168.91875850  .00002926  00000+0  23192-3 0  9996
2 42831  97.4687 324.4230 0019572 119.1525 241.1661 15.01150240486566
SALSAT                  
1 46495U 20068K   26168.53797512  .00006219  00000+0  21821-3 0  9990
2 46495  97.8847 171.6239 0008040 306.6544  53.3955 15.29803905315418
